norad_id,name,regime,epoch,line1,line2,inclination,eccentricity,mean_motion,raan,arg_pericenter,mean_anomaly
837,OPS 3674 (VELA 4),HAO,21287.26216052,1   837U 64040B   21287.26216052  .00000239  00000-0  00000+0 0   574\,2   837  44.2908 153.4820 3773466 310.3730   0.5448  0.23999046 50225,44.2908,0.3773466,0.23999046,153.482,310.373,0.5448
837,OPS 3674 (VELA 4),HAO,21287.49313632,1   837U 64040B   21287.49313632  .00000243  00000-0  00000+0 0   587\,2   837  44.2922 153.4773 3772728 310.3646  20.5136  0.23998942 50224,44.2922,0.3772728,0.23998942,153.4773,310.3646,20.5136
837,OPS 3674 (VELA 4),HAO,21291.64536422,1 00837U 64040B   21291.64536422  .00000354  00000-0  00000-0 0    15\,2 00837  44.3297 153.4044 3763857 310.1899  19.5214  0.23999072 50648,44.3297,0.3763857,0.23999072,153.4044,310.1899,19.5214
837,OPS 3674 (VELA 4),HAO,21311.21037094,1   837U 64040B   21311.21037094  .00000520  00000-0  00000+0 0   612\,2   837  44.4356 153.0273 3714548 309.7574 270.6480  0.24000096 50287,44.4356,0.3714548,0.24000096,153.0273,309.7574,270.648
837,OPS 3674 (VELA 4),HAO,21312.25336317,1 00837U 64040B   21312.25336317  .00000471  00000-0  00000-0 0    17\,2 00837  44.4444 153.0053 3710096 309.7297   0.7992  0.23997617 50684,44.4444,0.3710096,0.23997617,153.0053,309.7297,0.7992
837,OPS 3674 (VELA 4),HAO,21324.73922793,1 00837U 64040B   21324.73922793  .00000522  00000-0  00000-0 0    19\,2 00837  44.5418 152.7675 3685473 309.3001   0.2030  0.23990257 50716,44.5418,0.3685473,0.23990257,152.7675,309.3001,0.203
837,OPS 3674 (VELA 4),HAO,21362.21665396,1 00837U 64040B   21362.21665396  .00000538  00000-0  00000-0 0    14\,2 00837  44.7735 152.0891 3592066 308.3185 359.7212  0.23997103 50812,44.7735,0.3592066,0.23997103,152.0891,308.3185,359.7212
837,OPS 3674 (VELA 4),HAO,22001.63231051,1 00837U 64040B   22001.63231051  .00000281  00000-0  00000-0 0    13\,2 00837  44.7950 152.0039 3577475 308.1439  21.4620  0.23996119 50825,44.795,0.3577475,0.23996119,152.0039,308.1439,21.462
837,OPS 3674 (VELA 4),HAO,22006.66427385,1 00837U 64040B   22006.66427385  .00000208  00000-0  00000-0 0    17\,2 00837  44.8337 151.9219 3564775 307.8850  96.5687  0.23999054 50844,44.8337,0.3564775,0.23999054,151.9219,307.885,96.5687
837,OPS 3674 (VELA 4),HAO,22022.55386128,1   837U 64040B   22022.55386128  .00000308  00000-0  00000+0 0   674\,2   837  44.9337 151.6368 3533401 307.5076  30.0169  0.23994855 50466,44.9337,0.3533401,0.23994855,151.6368,307.5076,30.0169
837,OPS 3674 (VELA 4),HAO,22026.38913404,1 00837U 64040B   22026.38913404  .00000225  00000-0  00000-0 0    19\,2 00837  44.9487 151.5713 3522292 307.3435   1.6150  0.23999141 50881,44.9487,0.3522292,0.23999141,151.5713,307.3435,1.615
837,OPS 3674 (VELA 4),HAO,22030.45898847,1 00837U 64040B   22030.45898847  .00000004  00000-0  00000-0 0    10\,2 00837  44.9651 151.5056 3510059 307.1601 353.4995  0.23998115 50891,44.9651,0.3510059,0.23998115,151.5056,307.1601,353.4995
837,OPS 3674 (VELA 4),HAO,22034.70188990,1   837U 64040B   22034.70188990  .00000016  00000-0  00000+0 0   701\,2   837  44.9959 151.4362 3501640 306.9246   0.3892  0.23996402 50496,44.9959,0.350164,0.23996402,151.4362,306.9246,0.3892
837,OPS 3674 (VELA 4),HAO,22038.86757843,1 00837U 64040B   22038.86757843 -.00000012  00000-0  00000-0 0    13\,2 00837  45.0254 151.3567 3493742 306.7549   0.4966  0.23994615 50902,45.0254,0.3493742,0.23994615,151.3567,306.7549,0.4966
837,OPS 3674 (VELA 4),HAO,22047.19646396,1 00837U 64040B   22047.19646396  .00000120  00000-0  00000-0 0    18\,2 00837  45.0674 151.2065 3479498 306.6214   0.3424  0.23993057 50930,45.0674,0.3479498,0.23993057,151.2065,306.6214,0.3424
837,OPS 3674 (VELA 4),HAO,22051.36081541,1 00837U 64040B   22051.36081541  .00000227  00000-0  00000-0 0    15\,2 00837  45.0787 151.1430 3467729 306.4772   0.3298  0.23996886 50944,45.0787,0.3467729,0.23996886,151.143,306.4772,0.3298
837,OPS 3674 (VELA 4),HAO,22055.52922139,1 00837U 64040B   22055.52922139  .00000067  00000-0  00000-0 0    16\,2 00837  45.0928 151.0688 3456551 306.2925   0.7225  0.23996987 50951,45.0928,0.3456551,0.23996987,151.0688,306.2925,0.7225
837,OPS 3674 (VELA 4),HAO,22055.52922341,1   837U 64040B   22055.52922341  .00000067  00000-0  00000+0 0   751\,2   837  45.0927 151.0689 3456590 306.2923   0.7221  0.23996946 50548,45.0927,0.345659,0.23996946,151.0689,306.2923,0.7221
837,OPS 3674 (VELA 4),HAO,22076.35062643,1 00837U 64040B   22076.35062643  .00000295  00000-0  00000-0 0    18\,2 00837  45.2035 150.7059 3420820 305.5729   0.7096  0.23995540 51001,45.2035,0.342082,0.2399554,150.7059,305.5729,0.7096
837,OPS 3674 (VELA 4),HAO,22088.84123431,1 00837U 64040B   22088.84123431  .00000195  00000-0  00000-0 0    17\,2 00837  45.2609 150.5041 3393045 304.9574   0.7040  0.23997055 51020,45.2609,0.3393045,0.23997055,150.5041,304.9574,0.704
837,OPS 3674 (VELA 4),HAO,22101.33090826,1   837U 64040B   22101.33090826  .00000400  00000-0  00000+0 0   780\,2   837  45.3336 150.2704 3376235 304.6324   0.3093  0.23994362 50653,45.3336,0.3376235,0.23994362,150.2704,304.6324,0.3093
837,OPS 3674 (VELA 4),HAO,22105.49229295,1 00837U 64040B   22105.49229295  .00000564  00000-0  00000-0 0    13\,2 00837  45.3474 150.2029 3365984 304.4816   0.0690  0.23998263 51070,45.3474,0.3365984,0.23998263,150.2029,304.4816,0.069
837,OPS 3674 (VELA 4),HAO,22109.65490504,1 00837U 64040B   22109.65490504  .00000473  00000-0  00000-0 0    17\,2 00837  45.3622 150.1299 3355771 304.2778 359.9941  0.23998320 51081,45.3622,0.3355771,0.2399832,150.1299,304.2778,359.9941
837,OPS 3674 (VELA 4),HAO,22109.66126935,1 00837U 64040B   22109.66126935  .00000473  00000-0  00000-0 0    12\,2 00837  45.3623 150.1298 3355761 304.2774   0.5443  0.23998343 51076,45.3623,0.3355761,0.23998343,150.1298,304.2774,0.5443
837,OPS 3674 (VELA 4),HAO,22113.81939715,1 00837U 64040B   22113.81939715  .00000358  00000-0  00000-0 0    14\,2 00837  45.3871 150.0682 3348012 304.0502   0.1089  0.23998809 51096,45.3871,0.3348012,0.23998809,150.0682,304.0502,0.1089
837,OPS 3674 (VELA 4),HAO,22113.82342244,1 00837U 64040B   22113.82342244  .00000358  00000-0  00000-0 0    10\,2 00837  45.3869 150.0683 3348004 304.0498   0.4566  0.23998798 51099,45.3869,0.3348004,0.23998798,150.0683,304.0498,0.4566
837,OPS 3674 (VELA 4),HAO,22117.98147963,1   837U 64040B   22117.98147963  .00000419  00000-0  00000+0 0   828\,2   837  45.4199 149.9977 3343250 303.8403 359.9841  0.23997078 50693,45.4199,0.334325,0.23997078,149.9977,303.8403,359.9841
837,OPS 3674 (VELA 4),HAO,22122.14788065,1 00837U 64040B   22122.14788065  .00000385  00000-0  00000-0 0    10\,2 00837  45.4398 149.9164 3339145 303.7004   0.1483  0.23991918 51107,45.4398,0.3339145,0.23991918,149.9164,303.7004,0.1483
837,OPS 3674 (VELA 4),HAO,22130.47751168,1   837U 64040B   22130.47751168  .00000621  00000-0  00000+0 0   842\,2   837  45.4839 149.7724 3325484 303.5364   0.1076  0.23995719 50723,45.4839,0.3325484,0.23995719,149.7724,303.5364,0.1076
837,OPS 3674 (VELA 4),HAO,22138.80583034,1 00837U 64040B   22138.80583034  .00000488  00000-0  00000-0 0    13\,2 00837  45.5167 149.6371 3305504 303.1247   0.2297  0.23997709 51157,45.5167,0.3305504,0.23997709,149.6371,303.1247,0.2297
837,OPS 3674 (VELA 4),HAO,22155.45586082,1 00837U 64040B   22155.45586082  .00000492  00000-0  00000-0 0    14\,2 00837  45.6221 149.3498 3284566 302.5239 359.6007  0.23993648 51196,45.6221,0.3284566,0.23993648,149.3498,302.5239,359.6007
837,OPS 3674 (VELA 4),HAO,22184.60605774,1 00837U 64040B   22184.60605774  .00000374  00000-0  00000-0 0    12\,2 00837  45.7640 148.8810 3239338 301.2889 359.7993  0.23995123 51261,45.764,0.3239338,0.23995123,148.881,301.2889,359.7993
837,OPS 3674 (VELA 4),HAO,22192.93760433,1 00837U 64040B   22192.93760433  .00000238  00000-0  00000-0 0    10\,2 00837  45.7887 148.7565 3221231 300.8456   0.2082  0.23996645 51287,45.7887,0.3221231,0.23996645,148.7565,300.8456,0.2082
837,OPS 3674 (VELA 4),HAO,22205.42705199,1 00837U 64040B   22205.42705199  .00000022  00000-0  00000-0 0    18\,2 00837  45.8621 148.5478 3210787 300.2375   0.0780  0.23990487 51307,45.8621,0.3210787,0.23990487,148.5478,300.2375,0.078
837,OPS 3674 (VELA 4),HAO,22205.42705275,1 00837U 64040B   22205.42705275  .00000022  00000-0  00000-0 0    13\,2 00837  45.8621 148.5478 3210766 300.2370   0.0784  0.23990470 51305,45.8621,0.3210766,0.2399047,148.5478,300.237,0.0784
837,OPS 3674 (VELA 4),HAO,22226.24353467,1 00837U 64040B   22226.24353467  .00000020  00000-0  00000-0 0    16\,2 00837  45.9394 148.2353 3180110 299.2289 359.9678  0.23995389 51365,45.9394,0.318011,0.23995389,148.2353,299.2289,359.9678
837,OPS 3674 (VELA 4),HAO,22226.25189489,1   837U 64040B   22226.25189489  .00000021  00000-0  00000+0 0   917\,2   837  45.9392 148.2355 3180335 299.2267   0.6955  0.23995468 50950,45.9392,0.3180335,0.23995468,148.2355,299.2267,0.6955
837,OPS 3674 (VELA 4),HAO,22226.25199639,1   837U 64040B   22226.25199639  .00000020  00000-0  00000+0 0   903\,2   837  45.9394 148.2345 3180133 299.2269   0.7024  0.23995407 50950,45.9394,0.3180133,0.23995407,148.2345,299.2269,0.7024
837,OPS 3674 (VELA 4),HAO,22230.41095446,1 00837U 64040B   22230.41095446 -.00000046  00000-0  00000-0 0    19\,2 00837  45.9583 148.1588 3176528 299.0431   0.2377  0.23991825 51373,45.9583,0.3176528,0.23991825,148.1588,299.0431,0.2377
837,OPS 3674 (VELA 4),HAO,22230.41959596,1 00837U 64040B   22230.41959596 -.00000047  00000-0  00000-0 0    15\,2 00837  45.9580 148.1586 3176880 299.0385   0.9938  0.23991942 51366,45.958,0.317688,0.23991942,148.1586,299.0385,0.9938
837,OPS 3674 (VELA 4),HAO,22234.57801197,1 00837U 64040B   22234.57801197 -.00000050  00000-0  00000-0 0    13\,2 00837  45.9775 148.0826 3173738 298.9644   0.4121  0.23990650 51378,45.9775,0.3173738,0.2399065,148.0826,298.9644,0.4121
